TITAN 4B R/B            
1 26474U 00047B   25300.33055297  .00005899  00000+0  37981-3 0  9999
2 26474  67.9909  55.1450 0043817 197.7228 162.2395 15.08256121372791
ENVISAT                 
1 27386U 02009A   25300.33644712  .00000239  00000+0  91406-4 0  9994
2 27386  98.3519 252.2724 0001337  85.8282  71.0289 14.38973272239999
IDEFIX & ARIANE 42P R/B 
1 27422U 02021B   25300.29295509  .00000482  00000+0  20013-3 0  9995
2 27422  98.5711 235.6051 0010951 216.3733 143.6707 14.30899097224942
AQUA                    
1 27424U 02022A   25300.28709242  .00001676  00000+0  34666-3 0  9996
2 27424  98.3964 260.4345 0001462  52.9942  53.4762 14.61640880249244
CZ-4B R/B               
1 27432U 02024C   25300.17449597  .00000074  00000+0  60979-4 0  9997
2 27432  98.9069 349.0920 0050817  43.0681  26.4613 14.14513907210360
MIDORI II (ADEOS-II)    
1 27597U 02056A   25300.29889352  .00000476  00000+0  20518-3 0  9994
2 27597  98.7556 253.0309 0001931  56.6305 303.5061 14.29157319191240
H-2A R/B                
1 27601U 02056E   25299.92071218  .00000440  00000+0  16919-3 0  9992
2 27601  98.2989 260.5606 0069791 199.3429 226.4125 14.33626593194948
CZ-4B R/B               
1 28059U 03049C   25300.24150071  .00000721  00000+0  17740-3 0  9991
2 28059  98.6755 285.0570 0047123 279.3255  80.2614 14.54842725167190
CZ-2C R/B               
1 28222U 04012C   25300.29576999  .00033972  00000+0  57039-3 0  9999
2 28222  97.7498 349.2138 0021002  81.5558 278.8073 15.51470111183518
SL-16 R/B               
1 28353U 04021B   25300.02123549 -.00000265  00000+0 -11327-3 0  9995
2 28353  70.9990 153.0052 0007355 251.8434 108.1888 14.14572272103935
CZ-4B R/B               
1 28415U 04035C   25300.03000447  .00009810  00000+0  37375-3 0  9995
2 28415  97.3671 331.0169 0035972  82.7487 277.7838 15.26300959159502
CZ-2C R/B               
1 28480U 04046B   25300.25800325  .00000241  00000+0  10495-3 0  9999
2 28480  98.1942 218.5360 0139270 188.9682 170.9009 14.26910467 89470
