CCSDS_OMM_VERS = 2.0
CREATION_DATE  = 
ORIGINATOR     = 

OBJECT_NAME    = TITAN 4B R/B
OBJECT_ID      = 2000-047B
CENTER_NAME    = EARTH
REF_FRAME      = TEME
TIME_SYSTEM    = UTC
MEAN_ELEMENT_THEORY = SGP/SGP4

EPOCH          = 2025-10-27T07:55:59.776608
MEAN_MOTION    = 15.08256121
ECCENTRICITY   = .00438172
INCLINATION    = 67.9909
RA_OF_ASC_NODE = 55.1450
ARG_OF_PERICENTER = 197.7228
MEAN_ANOMALY   = 162.2395

EPHEMERIS_TYPE = 0
CLASSIFICATION_TYPE = U
NORAD_CAT_ID   = 26474
ELEMENT_SET_NO = 999
REV_AT_EPOCH   = 37279
BSTAR          = .37981119E-3
MEAN_MOTION_DOT = .5899E-4
MEAN_MOTION_DDOT = 0

CCSDS_OMM_VERS = 2.0
CREATION_DATE  = 
ORIGINATOR     = 

OBJECT_NAME    = ENVISAT
OBJECT_ID      = 2002-009A
CENTER_NAME    = EARTH
REF_FRAME      = TEME
TIME_SYSTEM    = UTC
MEAN_ELEMENT_THEORY = SGP/SGP4

EPOCH          = 2025-10-27T08:04:29.031168
MEAN_MOTION    = 14.38973272
ECCENTRICITY   = .00013373
INCLINATION    = 98.3519
RA_OF_ASC_NODE = 252.2724
ARG_OF_PERICENTER = 85.8282
MEAN_ANOMALY   = 71.0289

EPHEMERIS_TYPE = 0
CLASSIFICATION_TYPE = U
NORAD_CAT_ID   = 27386
ELEMENT_SET_NO = 999
REV_AT_EPOCH   = 23999
BSTAR          = .91405836E-4
MEAN_MOTION_DOT = .239E-5
MEAN_MOTION_DDOT = 0

CCSDS_OMM_VERS = 2.0
CREATION_DATE  = 
ORIGINATOR     = 

OBJECT_NAME    = IDEFIX & ARIANE 42P R/B
OBJECT_ID      = 2002-021B
CENTER_NAME    = EARTH
REF_FRAME      = TEME
TIME_SYSTEM    = UTC
MEAN_ELEMENT_THEORY = SGP/SGP4

EPOCH          = 2025-10-27T07:01:51.319776
MEAN_MOTION    = 14.30899097
ECCENTRICITY   = .00109519
INCLINATION    = 98.5711
RA_OF_ASC_NODE = 235.6051
ARG_OF_PERICENTER = 216.3733
MEAN_ANOMALY   = 143.6707

EPHEMERIS_TYPE = 0
CLASSIFICATION_TYPE = U
NORAD_CAT_ID   = 27422
ELEMENT_SET_NO = 999
REV_AT_EPOCH   = 22494
BSTAR          = .20012952E-3
MEAN_MOTION_DOT = .482E-5
MEAN_MOTION_DDOT = 0

CCSDS_OMM_VERS = 2.0
CREATION_DATE  = 
ORIGINATOR     = 

OBJECT_NAME    = AQUA
OBJECT_ID      = 2002-022A
CENTER_NAME    = EARTH
REF_FRAME      = TEME
TIME_SYSTEM    = UTC
MEAN_ELEMENT_THEORY = SGP/SGP4

EPOCH          = 2025-10-27T06:53:24.785088
MEAN_MOTION    = 14.61640880
ECCENTRICITY   = .00014622
INCLINATION    = 98.3964
RA_OF_ASC_NODE = 260.4345
ARG_OF_PERICENTER = 52.9942
MEAN_ANOMALY   = 53.4762

EPHEMERIS_TYPE = 0
CLASSIFICATION_TYPE = U
NORAD_CAT_ID   = 27424
ELEMENT_SET_NO = 999
REV_AT_EPOCH   = 24924
BSTAR          = .34666307E-3
MEAN_MOTION_DOT = .1676E-4
MEAN_MOTION_DDOT = 0

CCSDS_OMM_VERS = 2.0
CREATION_DATE  = 
ORIGINATOR     = 

OBJECT_NAME    = CZ-4B R/B
OBJECT_ID      = 2002-024C
CENTER_NAME    = EARTH
REF_FRAME      = TEME
TIME_SYSTEM    = UTC
MEAN_ELEMENT_THEORY = SGP/SGP4

EPOCH          = 2025-10-27T04:11:16.451808
MEAN_MOTION    = 14.14513907
ECCENTRICITY   = .00508178
INCLINATION    = 98.9069
RA_OF_ASC_NODE = 349.0920
ARG_OF_PERICENTER = 43.0681
MEAN_ANOMALY   = 26.4613

EPHEMERIS_TYPE = 0
CLASSIFICATION_TYPE = U
NORAD_CAT_ID   = 27432
ELEMENT_SET_NO = 999
REV_AT_EPOCH   = 21036
BSTAR          = .60979401E-4
MEAN_MOTION_DOT = .74E-6
MEAN_MOTION_DDOT = 0

CCSDS_OMM_VERS = 2.0
CREATION_DATE  = 
ORIGINATOR     = 

OBJECT_NAME    = MIDORI II (ADEOS-II)
OBJECT_ID      = 2002-056A
CENTER_NAME    = EARTH
REF_FRAME      = TEME
TIME_SYSTEM    = UTC
MEAN_ELEMENT_THEORY = SGP/SGP4

EPOCH          = 2025-10-27T07:10:24.400128
MEAN_MOTION    = 14.29157319
ECCENTRICITY   = .00019311
INCLINATION    = 98.7556
RA_OF_ASC_NODE = 253.0309
ARG_OF_PERICENTER = 56.6305
MEAN_ANOMALY   = 303.5061

EPHEMERIS_TYPE = 0
CLASSIFICATION_TYPE = U
NORAD_CAT_ID   = 27597
ELEMENT_SET_NO = 999
REV_AT_EPOCH   = 19124
BSTAR          = .20518315E-3
MEAN_MOTION_DOT = .476E-5
MEAN_MOTION_DDOT = 0

CCSDS_OMM_VERS = 2.0
CREATION_DATE  = 
ORIGINATOR     = 

OBJECT_NAME    = H-2A R/B
OBJECT_ID      = 2002-056E
CENTER_NAME    = EARTH
REF_FRAME      = TEME
TIME_SYSTEM    = UTC
MEAN_ELEMENT_THEORY = SGP/SGP4

EPOCH          = 2025-10-26T22:05:49.532352
MEAN_MOTION    = 14.33626593
ECCENTRICITY   = .0069791
INCLINATION    = 98.2989
RA_OF_ASC_NODE = 260.5606
ARG_OF_PERICENTER = 199.3429
MEAN_ANOMALY   = 226.4125

EPHEMERIS_TYPE = 0
CLASSIFICATION_TYPE = U
NORAD_CAT_ID   = 27601
ELEMENT_SET_NO = 999
REV_AT_EPOCH   = 19494
BSTAR          = .16919E-3
MEAN_MOTION_DOT = .44E-5
MEAN_MOTION_DDOT = 0

CCSDS_OMM_VERS = 2.0
CREATION_DATE  = 
ORIGINATOR     = 

OBJECT_NAME    = CZ-4B R/B
OBJECT_ID      = 2003-049C
CENTER_NAME    = EARTH
REF_FRAME      = TEME
TIME_SYSTEM    = UTC
MEAN_ELEMENT_THEORY = SGP/SGP4

EPOCH          = 2025-10-27T05:47:45.661344
MEAN_MOTION    = 14.54842725
ECCENTRICITY   = .00471238
INCLINATION    = 98.6755
RA_OF_ASC_NODE = 285.0570
ARG_OF_PERICENTER = 279.3255
MEAN_ANOMALY   = 80.2614

EPHEMERIS_TYPE = 0
CLASSIFICATION_TYPE = U
NORAD_CAT_ID   = 28059
ELEMENT_SET_NO = 999
REV_AT_EPOCH   = 16719
BSTAR          = .17740072E-3
MEAN_MOTION_DOT = .721E-5
MEAN_MOTION_DDOT = 0

CCSDS_OMM_VERS = 2.0
CREATION_DATE  = 
ORIGINATOR     = 

OBJECT_NAME    = CZ-2C R/B
OBJECT_ID      = 2004-012C
CENTER_NAME    = EARTH
REF_FRAME      = TEME
TIME_SYSTEM    = UTC
MEAN_ELEMENT_THEORY = SGP/SGP4

EPOCH          = 2025-10-27T07:05:54.527136
MEAN_MOTION    = 15.51470111
ECCENTRICITY   = .00210021
INCLINATION    = 97.7498
RA_OF_ASC_NODE = 349.2138
ARG_OF_PERICENTER = 81.5558
MEAN_ANOMALY   = 278.8073

EPHEMERIS_TYPE = 0
CLASSIFICATION_TYPE = U
NORAD_CAT_ID   = 28222
ELEMENT_SET_NO = 999
REV_AT_EPOCH   = 18351
BSTAR          = .57039377E-3
MEAN_MOTION_DOT = .33972E-3
MEAN_MOTION_DDOT = 0

CCSDS_OMM_VERS = 2.0
CREATION_DATE  = 
ORIGINATOR     = 

OBJECT_NAME    = SL-16 R/B
OBJECT_ID      = 2004-021B
CENTER_NAME    = EARTH
REF_FRAME      = TEME
TIME_SYSTEM    = UTC
MEAN_ELEMENT_THEORY = SGP/SGP4

EPOCH          = 2025-10-27T00:30:34.746336
MEAN_MOTION    = 14.14572272
ECCENTRICITY   = .00073555
INCLINATION    = 70.9990
RA_OF_ASC_NODE = 153.0052
ARG_OF_PERICENTER = 251.8434
MEAN_ANOMALY   = 108.1888

EPHEMERIS_TYPE = 0
CLASSIFICATION_TYPE = U
NORAD_CAT_ID   = 28353
ELEMENT_SET_NO = 999
REV_AT_EPOCH   = 10393
BSTAR          = -.11327305E-3
MEAN_MOTION_DOT = -.265E-5
MEAN_MOTION_DDOT = 0

CCSDS_OMM_VERS = 2.0
CREATION_DATE  = 
ORIGINATOR     = 

OBJECT_NAME    = CZ-4B R/B
OBJECT_ID      = 2004-035C
CENTER_NAME    = EARTH
REF_FRAME      = TEME
TIME_SYSTEM    = UTC
MEAN_ELEMENT_THEORY = SGP/SGP4

EPOCH          = 2025-10-27T00:43:12.386208
MEAN_MOTION    = 15.26300959
ECCENTRICITY   = .00359724
INCLINATION    = 97.3671
RA_OF_ASC_NODE = 331.0169
ARG_OF_PERICENTER = 82.7487
MEAN_ANOMALY   = 277.7838

EPHEMERIS_TYPE = 0
CLASSIFICATION_TYPE = U
NORAD_CAT_ID   = 28415
ELEMENT_SET_NO = 999
REV_AT_EPOCH   = 15950
BSTAR          = .37374511E-3
MEAN_MOTION_DOT = .981E-4
MEAN_MOTION_DDOT = 0

CCSDS_OMM_VERS = 2.0
CREATION_DATE  = 
ORIGINATOR     = 

OBJECT_NAME    = CZ-2C R/B
OBJECT_ID      = 2004-046B
CENTER_NAME    = EARTH
REF_FRAME      = TEME
TIME_SYSTEM    = UTC
MEAN_ELEMENT_THEORY = SGP/SGP4

EPOCH          = 2025-10-27T06:11:31.480800
MEAN_MOTION    = 14.26910467
ECCENTRICITY   = .01392701
INCLINATION    = 98.1942
RA_OF_ASC_NODE = 218.5360
ARG_OF_PERICENTER = 188.9682
MEAN_ANOMALY   = 170.9009

EPHEMERIS_TYPE = 0
CLASSIFICATION_TYPE = U
NORAD_CAT_ID   = 28480
ELEMENT_SET_NO = 999
REV_AT_EPOCH   = 8947
BSTAR          = .10494711E-3
MEAN_MOTION_DOT = .241E-5
MEAN_MOTION_DDOT = 0

